start=new Date('2023-02-07T00:00:00.000Z').valueOf();
sats=[{"OBJECT_TYPE":"PAYLOAD","RCS_SIZE":null,"EPOCH":"2023-02-06T22:00:00.999936","CLASSIFICATION_TYPE":"U","EPHEMERIS_TYPE":"0","REF_FRAME":"TEME","APOAPSIS":"324.839","RA_OF_ASC_NODE":"334.0258","MEAN_ELEMENT_THEORY":"SGP4","INCLINATION":"42.9996","BSTAR":"-0.00390840000000","MEAN_ANOMALY":"93.3075","PERIAPSIS":"318.448","COUNTRY_CODE":"US","PERIOD":"90.960","MEAN_MOTION_DOT":"-0.00793608","DECAY_DATE":null,"SEMIMAJOR_AXIS":"6699.779","SITE":"AFETR","ELEMENT_SET_NO":"999","FILE":"3776034","ARG_OF_PERICENTER":"268.3488","REV_AT_EPOCH":"130","TLE_LINE2":"2 55349  42.9996 334.0258 0004770 268.3488  93.3075 15.83113621  1301","OBJECT_NAME":"STARLINK-5666","OBJECT_ID":"2023-013U","TLE_LINE1":"1 55349U 23013U   23037.91667824 -.00793608  00000-0 -39084-2 0  9994","GP_ID":"224654981","ECCENTRICITY":"0.00047700","MEAN_MOTION":"15.83113621","NORAD_CAT_ID":"55349","TIME_SYSTEM":"UTC","CENTER_NAME":"EARTH","LAUNCH_DATE":"2023-01-26","MEAN_MOTION_DDOT":"0.0000000000000"},{"ELEMENT_SET_NO":"999","SITE":"AFETR","SEMIMAJOR_AXIS":"6699.772","FILE":"3776034","MEAN_MOTION_DOT":"-0.00785945","DECAY_DATE":null,"PERIOD":"90.960","COUNTRY_CODE":"US","BSTAR":"-0.00387360000000","PERIAPSIS":"320.587","MEAN_ANOMALY":"85.4508","MEAN_ELEMENT_THEORY":"SGP4","RA_OF_ASC_NODE":"334.0256","INCLINATION":"42.9999","EPHEMERIS_TYPE":"0","REF_FRAME":"TEME","APOAPSIS":"322.686","RCS_SIZE":null,"EPOCH":"2023-02-06T22:00:00.999936","CLASSIFICATION_TYPE":"U","OBJECT_TYPE":"PAYLOAD","TIME_SYSTEM":"UTC","CENTER_NAME":"EARTH","LAUNCH_DATE":"2023-01-26","MEAN_MOTION_DDOT":"0.0000000000000","GP_ID":"224653736","ECCENTRICITY":"0.00015660","NORAD_CAT_ID":"55350","MEAN_MOTION":"15.83116094","OBJECT_ID":"2023-013V","TLE_LINE1":"1 55350U 23013V   23037.91667824 -.00785945  00000-0 -38736-2 0  9994","OBJECT_NAME":"STARLINK-5668","TLE_LINE2":"2 55350  42.9999 334.0256 0001566 276.5970  85.4508 15.83116094  1301","REV_AT_EPOCH":"130","ARG_OF_PERICENTER":"276.5970"},{"ARG_OF_PERICENTER":"278.5897","REV_AT_EPOCH":"130","TLE_LINE2":"2 55351  42.9996 334.0202 0001570 278.5897  85.2945 15.83150860  1307","OBJECT_NAME":"STARLINK-5659","OBJECT_ID":"2023-013W","TLE_LINE1":"1 55351U 23013W   23037.91667824 -.00770112  00000-0 -37823-2 0  9991","GP_ID":"224653985","ECCENTRICITY":"0.00015700","MEAN_MOTION":"15.83150860","NORAD_CAT_ID":"55351","TIME_SYSTEM":"UTC","CENTER_NAME":"EARTH","MEAN_MOTION_DDOT":"0.0000000000000","LAUNCH_DATE":"2023-01-26","OBJECT_TYPE":"PAYLOAD","RCS_SIZE":null,"EPOCH":"2023-02-06T22:00:00.999936","CLASSIFICATION_TYPE":"U","EPHEMERIS_TYPE":"0","REF_FRAME":"TEME","APOAPSIS":"322.590","RA_OF_ASC_NODE":"334.0202","MEAN_ELEMENT_THEORY":"SGP4","INCLINATION":"42.9996","BSTAR":"-0.00378230000000","MEAN_ANOMALY":"85.2945","PERIAPSIS":"320.487","COUNTRY_CODE":"US","PERIOD":"90.958","MEAN_MOTION_DOT":"-0.00770112","DECAY_DATE":null,"SEMIMAJOR_AXIS":"6699.674","SITE":"AFETR","ELEMENT_SET_NO":"999","FILE":"3776034"},{"OBJECT_NAME":"STARLINK-5547","TLE_LINE1":"1 55352U 23013X   23037.91667824 -.00800903  00000-0 -39472-2 0  9996","OBJECT_ID":"2023-013X","MEAN_MOTION":"15.83153918","NORAD_CAT_ID":"55352","GP_ID":"224655230","ECCENTRICITY":"0.00014900","LAUNCH_DATE":"2023-01-26","MEAN_MOTION_DDOT":"0.0000000000000","TIME_SYSTEM":"UTC","CENTER_NAME":"EARTH","ARG_OF_PERICENTER":"278.4993","REV_AT_EPOCH":"130","TLE_LINE2":"2 55352  42.9993 334.0221 0001490 278.4993  84.6389 15.83153918  1305","MEAN_ANOMALY":"84.6389","PERIAPSIS":"320.532","BSTAR":"-0.00394720000000","COUNTRY_CODE":"US","PERIOD":"90.958","DECAY_DATE":null,"MEAN_MOTION_DOT":"-0.00800903","FILE":"3776034","SITE":"AFETR","SEMIMAJOR_AXIS":"6699.665","ELEMENT_SET_NO":"999","OBJECT_TYPE":"PAYLOAD","CLASSIFICATION_TYPE":"U","EPOCH":"2023-02-06T22:00:00.999936","RCS_SIZE":null,"APOAPSIS":"322.528","REF_FRAME":"TEME","EPHEMERIS_TYPE":"0","INCLINATION":"42.9993","RA_OF_ASC_NODE":"334.0221","MEAN_ELEMENT_THEORY":"SGP4"},{"MEAN_ELEMENT_THEORY":"SGP4","RA_OF_ASC_NODE":"334.0136","INCLINATION":"42.9992","EPHEMERIS_TYPE":"0","APOAPSIS":"322.380","REF_FRAME":"TEME","RCS_SIZE":null,"CLASSIFICATION_TYPE":"U","EPOCH":"2023-02-06T22:00:00.999936","OBJECT_TYPE":"PAYLOAD","ELEMENT_SET_NO":"999","SITE":"AFETR","SEMIMAJOR_AXIS":"6699.450","FILE":"3776034","MEAN_MOTION_DOT":"-0.00792267","DECAY_DATE":null,"PERIOD":"90.953","COUNTRY_CODE":"US","BSTAR":"-0.00388640000000","PERIAPSIS":"320.251","MEAN_ANOMALY":"87.3830","TLE_LINE2":"2 55353  42.9992 334.0136 0001589 279.0238  87.3830 15.83230012  1300","REV_AT_EPOCH":"130","ARG_OF_PERICENTER":"279.0238","TIME_SYSTEM":"UTC","CENTER_NAME":"EARTH","MEAN_MOTION_DDOT":"0.0000000000000","LAUNCH_DATE":"2023-01-26","ECCENTRICITY":"0.00015890","GP_ID":"224655480","NORAD_CAT_ID":"55353","MEAN_MOTION":"15.83230012","OBJECT_ID":"2023-013Y","TLE_LINE1":"1 55353U 23013Y   23037.91667824 -.00792267  00000-0 -38864-2 0  9994","OBJECT_NAME":"STARLINK-5608"},{"REV_AT_EPOCH":"130","ARG_OF_PERICENTER":"271.1687","TLE_LINE2":"2 55354  42.9995 334.0209 0001571 271.1687  92.3427 15.83168577  1301","TLE_LINE1":"1 55354U 23013Z   23037.91667824 -.00808770  00000-0 -39867-2 0  9996","OBJECT_ID":"2023-013Z","OBJECT_NAME":"STARLINK-5649","MEAN_MOTION_DDOT":"0.0000000000000","LAUNCH_DATE":"2023-01-26","CENTER_NAME":"EARTH","TIME_SYSTEM":"UTC","NORAD_CAT_ID":"55354","MEAN_MOTION":"15.83168577","GP_ID":"224654235","ECCENTRICITY":"0.00015710","CLASSIFICATION_TYPE":"U","EPOCH":"2023-02-06T22:00:00.999936","RCS_SIZE":null,"OBJECT_TYPE":"PAYLOAD","INCLINATION":"42.9995","MEAN_ELEMENT_THEORY":"SGP4","RA_OF_ASC_NODE":"334.0209","REF_FRAME":"TEME","APOAPSIS":"322.541","EPHEMERIS_TYPE":"0","PERIOD":"90.957","COUNTRY_CODE":"US","PERIAPSIS":"320.436","MEAN_ANOMALY":"92.3427","BSTAR":"-0.00398670000000","FILE":"3776034","SEMIMAJOR_AXIS":"6699.624","SITE":"AFETR","ELEMENT_SET_NO":"999","DECAY_DATE":null,"MEAN_MOTION_DOT":"-0.00808770"},{"EPHEMERIS_TYPE":"0","REF_FRAME":"TEME","APOAPSIS":"322.461","MEAN_ELEMENT_THEORY":"SGP4","RA_OF_ASC_NODE":"334.0174","INCLINATION":"42.9995","OBJECT_TYPE":"PAYLOAD","RCS_SIZE":null,"CLASSIFICATION_TYPE":"U","EPOCH":"2023-02-06T22:00:00.999936","MEAN_MOTION_DOT":"-0.00785645","DECAY_DATE":null,"ELEMENT_SET_NO":"999","SITE":"AFETR","SEMIMAJOR_AXIS":"6699.565","FILE":"3776034","BSTAR":"-0.00385850000000","PERIAPSIS":"320.398","MEAN_ANOMALY":"94.0476","PERIOD":"90.956","COUNTRY_CODE":"US","TLE_LINE2":"2 55355  42.9995 334.0174 0001540 270.9014  94.0476 15.83189422  1305","ARG_OF_PERICENTER":"270.9014","REV_AT_EPOCH":"130","GP_ID":"224654484","ECCENTRICITY":"0.00015400","NORAD_CAT_ID":"55355","MEAN_MOTION":"15.83189422","TIME_SYSTEM":"UTC","CENTER_NAME":"EARTH","LAUNCH_DATE":"2023-01-26","MEAN_MOTION_DDOT":"0.0000000000000","OBJECT_NAME":"STARLINK-5647","OBJECT_ID":"2023-013AA","TLE_LINE1":"1 55355U 23013AA  23037.91667824 -.00785645  00000-0 -38585-2 0  9998"},{"TLE_LINE2":"2 55356  42.9996 334.0194 0001543 274.1498  90.0938 15.83166953  1307","REV_AT_EPOCH":"130","ARG_OF_PERICENTER":"274.1498","MEAN_MOTION_DDOT":"0.0000000000000","LAUNCH_DATE":"2023-01-26","TIME_SYSTEM":"UTC","CENTER_NAME":"EARTH","NORAD_CAT_ID":"55356","MEAN_MOTION":"15.83166953","GP_ID":"224654733","ECCENTRICITY":"0.00015430","TLE_LINE1":"1 55356U 23013AB  23037.91667824 -.00780323  00000-0 -38341-2 0  9997","OBJECT_ID":"2023-013AB","OBJECT_NAME":"STARLINK-5083","INCLINATION":"42.9996","MEAN_ELEMENT_THEORY":"SGP4","RA_OF_ASC_NODE":"334.0194","REF_FRAME":"TEME","APOAPSIS":"322.527","EPHEMERIS_TYPE":"0","EPOCH":"2023-02-06T22:00:00.999936","CLASSIFICATION_TYPE":"U","RCS_SIZE":null,"OBJECT_TYPE":"PAYLOAD","FILE":"3776034","SITE":"AFETR","SEMIMAJOR_AXIS":"6699.628","ELEMENT_SET_NO":"999","DECAY_DATE":null,"MEAN_MOTION_DOT":"-0.00780323","PERIOD":"90.957","COUNTRY_CODE":"US","PERIAPSIS":"320.459","MEAN_ANOMALY":"90.0938","BSTAR":"-0.00383410000000"},{"LAUNCH_DATE":"2023-01-26","MEAN_MOTION_DDOT":"0.0000000000000","CENTER_NAME":"EARTH","TIME_SYSTEM":"UTC","NORAD_CAT_ID":"55357","MEAN_MOTION":"15.83189545","GP_ID":"224654982","ECCENTRICITY":"0.00015500","TLE_LINE1":"1 55357U 23013AC  23037.91667824 -.00772011  00000-0 -37855-2 0  9992","OBJECT_ID":"2023-013AC","OBJECT_NAME":"STARLINK-5651","TLE_LINE2":"2 55357  42.9997 334.0165 0001550 276.7538  88.5592 15.83189545  1308","REV_AT_EPOCH":"130","ARG_OF_PERICENTER":"276.7538","FILE":"3776034","SEMIMAJOR_AXIS":"6699.564","SITE":"AFETR","ELEMENT_SET_NO":"999","DECAY_DATE":null,"MEAN_MOTION_DOT":"-0.00772011","PERIOD":"90.956","COUNTRY_CODE":"US","PERIAPSIS":"320.391","MEAN_ANOMALY":"88.5592","BSTAR":"-0.00378550000000","INCLINATION":"42.9997","MEAN_ELEMENT_THEORY":"SGP4","RA_OF_ASC_NODE":"334.0165","REF_FRAME":"TEME","APOAPSIS":"322.468","EPHEMERIS_TYPE":"0","EPOCH":"2023-02-06T22:00:00.999936","CLASSIFICATION_TYPE":"U","RCS_SIZE":null,"OBJECT_TYPE":"PAYLOAD"},{"PERIOD":"90.956","COUNTRY_CODE":"US","BSTAR":"-0.00390830000000","PERIAPSIS":"320.387","MEAN_ANOMALY":"102.0751","SITE":"AFETR","ELEMENT_SET_NO":"999","SEMIMAJOR_AXIS":"6699.573","FILE":"3776034","MEAN_MOTION_DOT":"-0.00794837","DECAY_DATE":null,"RCS_SIZE":null,"EPOCH":"2023-02-06T22:00:00.999936","CLASSIFICATION_TYPE":"U","OBJECT_TYPE":"PAYLOAD","MEAN_ELEMENT_THEORY":"SGP4","RA_OF_ASC_NODE":"334.0184","INCLINATION":"42.9994","EPHEMERIS_TYPE":"0","REF_FRAME":"TEME","APOAPSIS":"322.489","OBJECT_ID":"2023-013AD","TLE_LINE1":"1 55358U 23013AD  23037.91667824 -.00794837  00000-0 -39083-2 0  9998","OBJECT_NAME":"STARLINK-5622","CENTER_NAME":"EARTH","TIME_SYSTEM":"UTC","MEAN_MOTION_DDOT":"0.0000000000000","LAUNCH_DATE":"2023-01-26","ECCENTRICITY":"0.00015690","GP_ID":"224653737","NORAD_CAT_ID":"55358","MEAN_MOTION":"15.83186611","REV_AT_EPOCH":"130","ARG_OF_PERICENTER":"262.5124","TLE_LINE2":"2 55358  42.9994 334.0184 0001569 262.5124 102.0751 15.83186611  1301"}];
